SEEDS II (CO-66)        
1 32791U 08021J   26068.92109284  .00023758  00000+0  84213-3 0  9995
2 32791  97.7519  62.3611 0001448 359.2618   0.8619 15.29097235972108
STARLINK-35477          
1 66338U 25253V   26068.41512663  .00025394  00000+0  92907-3 0  9995
2 66338  42.9991 213.9589 0002092 275.6665  84.3948 15.27582395 20206
